STARLINK-31400          
1 59405U 24064H   26067.99739477 -.00000949  00000+0 -24987-4 0  9992
2 59405  43.0014  59.7640 0000524 250.3044 109.7751 15.27574271109121
OTTER                   
1 62623U 25009Q   26068.72300813  .00012198  00000+0  45151-3 0  9990
2 62623  97.4065 151.3812 0003573 310.7710  49.3219 15.27809545 63722
